GSAT0101 (GALILEO-PFM)  
1 37846U 11060A   26073.40826530 -.00000081  00000+0  00000+0 0  9990
2 37846  57.0247 344.3347 0004100  11.0277 349.0106  1.70475751 89508
GSAT0102 (GALILEO-FM2)  
1 37847U 11060B   26060.06318653 -.00000106  00000+0  00000+0 0  9999
2 37847  57.0301 344.6971 0005422 341.2092 154.1953  1.70475778 89286
GSAT0103 (GALILEO-FM3)  
1 38857U 12055A   26073.44869499  .00000040  00000+0  00000+0 0  9997
2 38857  55.7469 104.1441 0005619 286.5139  73.5020  1.70473501 83397
GSAT0201 (GALILEO 5)    
1 40128U 14050A   26070.32154952  .00000005  00000+0  00000+0 0  9994
2 40128  48.9815 277.4406 1658807 175.5932 186.0859  1.85520170 76503
GSAT0202 (GALILEO 6)    
1 40129U 14050B   26070.57744300  .00000009  00000+0  00000+0 0  9998
2 40129  48.9971 276.5149 1659654 176.3418 185.0558  1.85520847 78676
GSAT0203 (GALILEO 7)    
1 40544U 15017A   26073.77283651 -.00000080  00000+0  00000+0 0  9995
2 40544  56.8177 344.1724 0004675 298.3422  61.6410  1.70475756 67597
GSAT0204 (GALILEO 8)    
1 40545U 15017B   26073.44184568 -.00000081  00000+0  00000+0 0  9998
2 40545  56.8237 344.1993 0004611 291.5238  68.4567  1.70475400 30632
GSAT0206 (GALILEO 10)   
1 40890U 15045B   26071.08432484  .00000037  00000+0  00000+0 0  9993
2 40890  54.9793 224.2827 0003542  50.5001 309.4904  1.70473824 65389
GSAT0209 (GALILEO 12)   
1 41174U 15079A   26073.59877879  .00000042  00000+0  00000+0 0  9991
2 41174  55.7661 103.8551 0005024 323.1920  36.8517  1.70474547 63168
GSAT0208 (GALILEO 11)   
1 41175U 15079B   26072.05924766  .00000030  00000+0  00000+0 0  9997
2 41175  55.7636 103.8944 0004380 323.4331  36.6088  1.70474457 63554
GSAT0211 (GALILEO 14)   
1 41549U 16030A   26073.94299010  .00000032  00000+0  00000+0 0  9998
2 41549  55.1274 224.2841 0003384  23.2273 336.7393  1.70473906 61063
GSAT0210 (GALILEO 13)   
1 41550U 16030B   26073.61368000  .00000033  00000+0  00000+0 0  9991
2 41550  55.1254 224.2912 0001477 201.7077 158.2389  1.70474017 61053
GSAT0207 (GALILEO 15)   
1 41859U 16069A   26072.71887421  .00000034  00000+0  00000+0 0  9999
2 41859  55.4358 103.7267 0005361 309.9075  50.1195  1.70474457 57779
GSAT0212 (GALILEO 16)   
1 41860U 16069B   26071.98582704  .00000029  00000+0  00000+0 0  9999
2 41860  55.4332 103.7422 0003884 334.9903  25.0622  1.70474723 58012
GSAT0213 (GALILEO 17)   
1 41861U 16069C   26073.52642598  .00000040  00000+0  00000+0 0  9993
2 41861  55.4372 103.7072 0005480 293.9947  66.0255  1.70474947 57906
GSAT0214 (GALILEO 18)   
1 41862U 16069D   26071.91273604  .00000028  00000+0  00000+0 0  9999
2 41862  55.4337 103.7448 0004476 297.9628  62.0628  1.70474834 58006
GSAT0215 (GALILEO 19)   
1 43055U 17079A   26071.81619082  .00000037  00000+0  00000+0 0  9990
2 43055  55.1052 224.1555 0000503 355.2258   4.7321  1.70474604 51342
