[{"OBJECT_NAME":"GSAT0101 (GALILEO-PFM)","OBJECT_ID":"2011-060A","EPOCH":"2026-03-14T09:47:54.121920","MEAN_MOTION":1.70475751,"ECCENTRICITY":0.00041001,"INCLINATION":57.0247,"RA_OF_ASC_NODE":344.3347,"ARG_OF_PERICENTER":11.0277,"MEAN_ANOMALY":349.0106,"EPHEMERIS_TYPE":0,"CLASSIFICATION_TYPE":"U","NORAD_CAT_ID":37846,"ELEMENT_SET_NO":999,"REV_AT_EPOCH":8950,"BSTAR":0,"MEAN_MOTION_DOT":-8.1e-7,"MEAN_MOTION_DDOT":0},{"OBJECT_NAME":"GSAT0102 (GALILEO-FM2)","OBJECT_ID":"2011-060B","EPOCH":"2026-03-01T01:30:59.316192","MEAN_MOTION":1.70475778,"ECCENTRICITY":0.00054225,"INCLINATION":57.0301,"RA_OF_ASC_NODE":344.6971,"ARG_OF_PERICENTER":341.2092,"MEAN_ANOMALY":154.1953,"EPHEMERIS_TYPE":0,"CLASSIFICATION_TYPE":"U","NORAD_CAT_ID":37847,"ELEMENT_SET_NO":999,"REV_AT_EPOCH":8928,"BSTAR":0,"MEAN_MOTION_DOT":-1.06e-6,"MEAN_MOTION_DDOT":0},{"OBJECT_NAME":"GSAT0103 (GALILEO-FM3)","OBJECT_ID":"2012-055A","EPOCH":"2026-03-14T10:46:07.247136","MEAN_MOTION":1.70473501,"ECCENTRICITY":0.00056194,"INCLINATION":55.7469,"RA_OF_ASC_NODE":104.1441,"ARG_OF_PERICENTER":286.5139,"MEAN_ANOMALY":73.502,"EPHEMERIS_TYPE":0,"CLASSIFICATION_TYPE":"U","NORAD_CAT_ID":38857,"ELEMENT_SET_NO":999,"REV_AT_EPOCH":8339,"BSTAR":0,"MEAN_MOTION_DOT":4.0e-7,"MEAN_MOTION_DDOT":0},{"OBJECT_NAME":"GSAT0201 (GALILEO 5)","OBJECT_ID":"2014-050A","EPOCH":"2026-03-11T07:43:01.878528","MEAN_MOTION":1.8552017,"ECCENTRICITY":0.16588071,"INCLINATION":48.9815,"RA_OF_ASC_NODE":277.4406,"ARG_OF_PERICENTER":175.5932,"MEAN_ANOMALY":186.0859,"EPHEMERIS_TYPE":0,"CLASSIFICATION_TYPE":"U","NORAD_CAT_ID":40128,"ELEMENT_SET_NO":999,"REV_AT_EPOCH":7650,"BSTAR":0,"MEAN_MOTION_DOT":5.0e-8,"MEAN_MOTION_DDOT":0},{"OBJECT_NAME":"GSAT0202 (GALILEO 6)","OBJECT_ID":"2014-050B","EPOCH":"2026-03-11T13:51:31.075200","MEAN_MOTION":1.85520847,"ECCENTRICITY":0.16596546,"INCLINATION":48.9971,"RA_OF_ASC_NODE":276.5149,"ARG_OF_PERICENTER":176.3418,"MEAN_ANOMALY":185.0558,"EPHEMERIS_TYPE":0,"CLASSIFICATION_TYPE":"U","NORAD_CAT_ID":40129,"ELEMENT_SET_NO":999,"REV_AT_EPOCH":7867,"BSTAR":0,"MEAN_MOTION_DOT":9.0e-8,"MEAN_MOTION_DDOT":0},{"OBJECT_NAME":"GSAT0203 (GALILEO 7)","OBJECT_ID":"2015-017A","EPOCH":"2026-03-14T18:32:53.074464","MEAN_MOTION":1.70475756,"ECCENTRICITY":0.00046753,"INCLINATION":56.8177,"RA_OF_ASC_NODE":344.1724,"ARG_OF_PERICENTER":298.3422,"MEAN_ANOMALY":61.641,"EPHEMERIS_TYPE":0,"CLASSIFICATION_TYPE":"U","NORAD_CAT_ID":40544,"ELEMENT_SET_NO":999,"REV_AT_EPOCH":6759,"BSTAR":0,"MEAN_MOTION_DOT":-8.0e-7,"MEAN_MOTION_DDOT":0},{"OBJECT_NAME":"GSAT0204 (GALILEO 8)","OBJECT_ID":"2015-017B","EPOCH":"2026-03-14T10:36:15.466752","MEAN_MOTION":1.704754,"ECCENTRICITY":0.0004611,"INCLINATION":56.8237,"RA_OF_ASC_NODE":344.1993,"ARG_OF_PERICENTER":291.5238,"MEAN_ANOMALY":68.4567,"EPHEMERIS_TYPE":0,"CLASSIFICATION_TYPE":"U","NORAD_CAT_ID":40545,"ELEMENT_SET_NO":999,"REV_AT_EPOCH":3063,"BSTAR":0,"MEAN_MOTION_DOT":-8.1e-7,"MEAN_MOTION_DDOT":0},{"OBJECT_NAME":"GSAT0206 (GALILEO 10)","OBJECT_ID":"2015-045B","EPOCH":"2026-03-12T02:01:25.666176","MEAN_MOTION":1.70473824,"ECCENTRICITY":0.0003542,"INCLINATION":54.9793,"RA_OF_ASC_NODE":224.2827,"ARG_OF_PERICENTER":50.5001,"MEAN_ANOMALY":309.4904,"EPHEMERIS_TYPE":0,"CLASSIFICATION_TYPE":"U","NORAD_CAT_ID":40890,"ELEMENT_SET_NO":999,"REV_AT_EPOCH":6538,"BSTAR":0,"MEAN_MOTION_DOT":3.7e-7,"MEAN_MOTION_DDOT":0},{"OBJECT_NAME":"GSAT0209 (GALILEO 12)","OBJECT_ID":"2015-079A","EPOCH":"2026-03-14T14:22:14.487456","MEAN_MOTION":1.70474547,"ECCENTRICITY":0.00050244,"INCLINATION":55.7661,"RA_OF_ASC_NODE":103.8551,"ARG_OF_PERICENTER":323.192,"MEAN_ANOMALY":36.8517,"EPHEMERIS_TYPE":0,"CLASSIFICATION_TYPE":"U","NORAD_CAT_ID":41174,"ELEMENT_SET_NO":999,"REV_AT_EPOCH":6316,"BSTAR":0,"MEAN_MOTION_DOT":4.2e-7,"MEAN_MOTION_DDOT":0},{"OBJECT_NAME":"GSAT0208 (GALILEO 11)","OBJECT_ID":"2015-079B","EPOCH":"2026-03-13T01:25:18.997824","MEAN_MOTION":1.70474457,"ECCENTRICITY":0.00043804,"INCLINATION":55.7636,"RA_OF_ASC_NODE":103.8944,"ARG_OF_PERICENTER":323.4331,"MEAN_ANOMALY":36.6088,"EPHEMERIS_TYPE":0,"CLASSIFICATION_TYPE":"U","NORAD_CAT_ID":41175,"ELEMENT_SET_NO":999,"REV_AT_EPOCH":6355,"BSTAR":0,"MEAN_MOTION_DOT":3.0e-7,"MEAN_MOTION_DDOT":0},{"OBJECT_NAME":"GSAT0211 (GALILEO 14)","OBJECT_ID":"2016-030A","EPOCH":"2026-03-14T22:37:54.344640","MEAN_MOTION":1.70473906,"ECCENTRICITY":0.00033849,"INCLINATION":55.1274,"RA_OF_ASC_NODE":224.2841,"ARG_OF_PERICENTER":23.2273,"MEAN_ANOMALY":336.7393,"EPHEMERIS_TYPE":0,"CLASSIFICATION_TYPE":"U","NORAD_CAT_ID":41549,"ELEMENT_SET_NO":999,"REV_AT_EPOCH":6106,"BSTAR":0,"MEAN_MOTION_DOT":3.2e-7,"MEAN_MOTION_DDOT":0},{"OBJECT_NAME":"GSAT0210 (GALILEO 13)","OBJECT_ID":"2016-030B","EPOCH":"2026-03-14T14:43:41.952000","MEAN_MOTION":1.70474017,"ECCENTRICITY":0.00014774,"INCLINATION":55.1254,"RA_OF_ASC_NODE":224.2912,"ARG_OF_PERICENTER":201.7077,"MEAN_ANOMALY":158.2389,"EPHEMERIS_TYPE":0,"CLASSIFICATION_TYPE":"U","NORAD_CAT_ID":41550,"ELEMENT_SET_NO":999,"REV_AT_EPOCH":6105,"BSTAR":0,"MEAN_MOTION_DOT":3.3e-7,"MEAN_MOTION_DDOT":0},{"OBJECT_NAME":"GSAT0207 (GALILEO 15)","OBJECT_ID":"2016-069A","EPOCH":"2026-03-13T17:15:10.731744","MEAN_MOTION":1.70474457,"ECCENTRICITY":0.00053616,"INCLINATION":55.4358,"RA_OF_ASC_NODE":103.7267,"ARG_OF_PERICENTER":309.9075,"MEAN_ANOMALY":50.1195,"EPHEMERIS_TYPE":0,"CLASSIFICATION_TYPE":"U","NORAD_CAT_ID":41859,"ELEMENT_SET_NO":999,"REV_AT_EPOCH":5777,"BSTAR":0,"MEAN_MOTION_DOT":3.4e-7,"MEAN_MOTION_DDOT":0},{"OBJECT_NAME":"GSAT0212 (GALILEO 16)","OBJECT_ID":"2016-069B","EPOCH":"2026-03-12T23:39:35.456256","MEAN_MOTION":1.70474723,"ECCENTRICITY":0.00038845,"INCLINATION":55.4332,"RA_OF_ASC_NODE":103.7422,"ARG_OF_PERICENTER":334.9903,"MEAN_ANOMALY":25.0622,"EPHEMERIS_TYPE":0,"CLASSIFICATION_TYPE":"U","NORAD_CAT_ID":41860,"ELEMENT_SET_NO":999,"REV_AT_EPOCH":5801,"BSTAR":0,"MEAN_MOTION_DOT":2.9e-7,"MEAN_MOTION_DDOT":0},{"OBJECT_NAME":"GSAT0213 (GALILEO 17)","OBJECT_ID":"2016-069C","EPOCH":"2026-03-14T12:38:03.204672","MEAN_MOTION":1.70474947,"ECCENTRICITY":0.00054805,"INCLINATION":55.4372,"RA_OF_ASC_NODE":103.7072,"ARG_OF_PERICENTER":293.9947,"MEAN_ANOMALY":66.0255,"EPHEMERIS_TYPE":0,"CLASSIFICATION_TYPE":"U","NORAD_CAT_ID":41861,"ELEMENT_SET_NO":999,"REV_AT_EPOCH":5790,"BSTAR":0,"MEAN_MOTION_DOT":4.0e-7,"MEAN_MOTION_DDOT":0},{"OBJECT_NAME":"GSAT0214 (GALILEO 18)","OBJECT_ID":"2016-069D","EPOCH":"2026-03-12T21:54:20.393856","MEAN_MOTION":1.70474834,"ECCENTRICITY":0.0004476,"INCLINATION":55.4337,"RA_OF_ASC_NODE":103.7448,"ARG_OF_PERICENTER":297.9628,"MEAN_ANOMALY":62.0628,"EPHEMERIS_TYPE":0,"CLASSIFICATION_TYPE":"U","NORAD_CAT_ID":41862,"ELEMENT_SET_NO":999,"REV_AT_EPOCH":5800,"BSTAR":0,"MEAN_MOTION_DOT":2.8e-7,"MEAN_MOTION_DDOT":0},{"OBJECT_NAME":"GSAT0215 (GALILEO 19)","OBJECT_ID":"2017-079A","EPOCH":"2026-03-12T19:35:18.886848","MEAN_MOTION":1.70474604,"ECCENTRICITY":5.032e-5,"INCLINATION":55.1052,"RA_OF_ASC_NODE":224.1555,"ARG_OF_PERICENTER":355.2258,"MEAN_ANOMALY":4.7321,"EPHEMERIS_TYPE":0,"CLASSIFICATION_TYPE":"U","NORAD_CAT_ID":43055,"ELEMENT_SET_NO":999,"REV_AT_EPOCH":5134,"BSTAR":0,"MEAN_MOTION_DOT":3.7e-7,"MEAN_MOTION_DDOT":0}]
